#aV2021  4 19  0  0  0.00000000     288 DD+AD WGS84 FIT  NGA
## 2154  86400.00000000   300.00000000 59323 0.0000000000000
+   31     1  2  3  4  5  6  7  8  9 10 12 13 14 15 16 17 18
+         19 20 21 22 23 24 25 26 27 28 29 30 31 32  0  0  0
+          0  0  0  0  0  0  0  0  0  0  0  0  0  0  0  0  0
+          0  0  0  0  0  0  0  0  0  0  0  0  0  0  0  0  0
+          0  0  0  0  0  0  0  0  0  0  0  0  0  0  0  0  0
++         2  2  2  2  2  2  2  2  2  2  2  2  2  2  2  2  2
++         2  2  2  2  2  2  2  2  2  2  2  2  2  2  0  0  0
++         0  0  0  0  0  0  0  0  0  0  0  0  0  0  0  0  0
++         0  0  0  0  0  0  0  0  0  0  0  0  0  0  0  0  0
++         0  0  0  0  0  0  0  0  0  0  0  0  0  0  0  0  0
%c cc cc ccc ccc cccc cccc cccc cccc ccccc ccccc ccccc ccccc
%c cc cc ccc ccc cccc cccc cccc cccc ccccc ccccc ccccc ccccc
%f  0.0000000  0.000000000  0.00000000000  0.000000000000000
%f  0.0000000  0.000000000  0.00000000000  0.000000000000000
%i    0    0    0    0      0      0      0      0         0
%i    0    0    0    0      0      0      0      0         0
/*      NGA, ST. LOUIS,MO.                                  
/*   EPHEMERIS COMPUTED FROM 2 DAYS OF DATA                 
/*   EPOCHA v6 SMOOTHER                                     
/*   G2139 IERS2010 SATIGS SATAPC                           
*  2021  4 19  2  5  0.00000000
P  1   2958.989036  14522.603575 -22287.667451    712.526027                    
V  1 -26926.490287   6178.555756    794.200866     -0.100870                    
P  2  19706.284190 -14506.537050  11036.341501   -596.908846                    
V  2  13060.911689  -1958.228524 -27499.624886     -0.033897                    
P  3  10558.716762  21869.953041 -10965.523474   -140.712882                    
V  3 -11060.716130  -8444.936968 -27587.272431     -0.105707                    
P  4    267.780663  24121.683162  11060.565142   -192.505751                    
V  4  -6716.297246  12591.273406 -27369.309718     -0.018888                    
P  5   4501.832089 -15905.352949  20601.645090    -39.483146                    
V  5  19783.028831  17752.477825   9495.970570     -0.010889                    
P  6  25899.059559  -6017.521231   -493.191583      8.334641                    
V  6   -191.844744   2147.512665 -32204.297288      0.029619                    
P  7  17421.969213   9275.967557  18342.859592    126.258789                    
V  7 -21527.847402   6476.384703  17013.837146      0.113912                    
P  8  -5166.554672  25757.542914  -2541.522013    -18.018170                    
V  8  -3597.979211   2388.350431  31890.092990     -0.014210                    
P  9   8962.413075  16861.311206  18393.904505   -339.892900                    
V  9  -7732.852505  22259.860537 -16606.224025     -0.026946                    
P 10 -21171.108317  -8137.623550 -13919.340149   -104.837608                    
V 10 -11010.333919 -14045.717607  24492.482294     -0.077689                    
P 12  -6647.506231 -22195.008443 -13375.071620    -29.673373                    
V 12  11881.204455  11556.299864 -25426.725537     -0.051051                    
P 13  13271.209942 -22435.544498   4584.891369    121.634600                    
V 13     24.037853   6566.258592  31290.794119      0.046140                    
P 14  20882.774248   9350.422384 -13521.166030     94.962272                    
V 14   9607.857648  14384.627811  24783.593170     -0.030996                    
P 15   1962.557450 -26137.128297  -3216.001577   -155.216530                    
V 15   4625.979988  -2991.214090  30899.053964      0.026087                    
P 16  -9014.920136  12152.750368  21536.042031   -311.878990                    
V 16 -17931.357106 -21447.789076   4991.754729     -0.059336                    
P 17  15203.677079   -233.815283 -21350.327900    428.677727                    
V 17  -8958.006278  26603.302455  -6540.283743      0.062201                    
P 18 -20265.965089  -6653.195400  15857.480080    351.591432                    
V 18  19241.473043  -6101.413388  21959.355752     -0.001590                    
P 19  17043.397373  -8844.990126 -18588.010686    -11.101531                    
V 19  -7600.816947  21746.219272 -17690.572814      0.050009                    
P 20 -14896.239580 -20129.179536   9192.039096    523.034006                    
V 20  11065.359057   4788.166548  28054.851393     -0.003874                    
P 21  -5578.749546  16217.841963 -19432.946143    112.027321                    
V 21 -25601.366768   6681.977532  12935.251532      0.028152                    
P 22   3025.731000  19630.211565 -17523.091964   -634.642965                    
V 22 -18536.201903 -13184.138706 -17586.250766      0.088567                    
P 23 -20633.494256 -16216.543970  -4263.778198    112.687252                    
V 23  -1969.171419  -5663.825861  31172.032227     -0.022426                    
P 24   2265.453117 -16733.142264 -20667.957741     17.881327                    
V 24  24982.300996  -6829.729366   8761.386331      0.324968                    
P 25 -17260.344121 -20275.131671  -2361.461747    121.248742                    
V 25   3674.887446    145.412552 -31401.248946      0.072378                    
P 26 -16345.851802   4863.850373  20365.909665     74.056213                    
V 26 -18136.664988 -18640.855257  -9811.951318      0.051370                    
P 27 -12272.562797  21659.206989   8534.486502   -115.226544                    
V 27    724.759836 -11414.320274  29779.388373     -0.068052                    
P 28  19555.570881   7373.975472 -15739.396944    584.607572                    
V 28  11566.024281  17683.191561  22089.812605     -0.058448                    
P 29  -7261.494048 -16914.995266  19082.379096   -332.460377                    
V 29   9439.975977 -22403.034504 -16266.952636     -0.066247                    
P 30  25458.982648    447.127550   8020.977704   -414.752020                    
V 30  -9183.005054   5188.983436  28824.762330     -0.051994                    
P 31 -25705.666559   7273.525511   2233.993528   -112.405325                    
V 31  -3380.904083  -1867.837711 -31190.256846     -0.022019                    
P 32 -16034.960898   2762.128458 -20852.379810     22.071502                    
V 32   6418.436369 -26010.029249  -8504.521281     -0.001090                    
EOF
